{
  "norad_id": 54013,
  "name": "STARLINK-5098",
  "history": [
    {
      "epoch": "2026-03-28T12:03:34.785216Z",
      "apogee_km": 540.6534812072032,
      "perigee_km": 538.8672801035173,
      "latitude_deg": -1.5132128895361933e-06,
      "longitude_deg": 112.80435196097645,
      "height_km": 540.6387117239265,
      "semi_major_axis_km": 6917.8973806553595,
      "eccentricity": 0.0001291,
      "inclination_deg": 53.2162,
      "raan_deg": 119.6213,
      "arg_perigee_deg": 88.8874,
      "mean_anomaly_deg": 271.2266,
      "mean_motion_rev_day": 15.08834441
    },
    {
      "epoch": "2026-03-29T02:22:02.756064Z",
      "apogee_km": 540.6392676094665,
      "perigee_km": 538.8461531885323,
      "latitude_deg": -4.670655030475613e-05,
      "longitude_deg": -105.07602620756232,
      "height_km": 540.6165910972942,
      "semi_major_axis_km": 6917.879710398999,
      "eccentricity": 0.0001296,
      "inclination_deg": 53.2164,
      "raan_deg": 116.9451,
      "arg_perigee_deg": 88.6057,
      "mean_anomaly_deg": 271.5083,
      "mean_motion_rev_day": 15.08840222
    },
    {
      "epoch": "2026-03-30T02:12:51.022944Z",
      "apogee_km": 541.1032406690538,
      "perigee_km": 538.4647456022713,
      "latitude_deg": -2.4323658898444494e-05,
      "longitude_deg": -108.21627184466115,
      "height_km": 540.606770157601,
      "semi_major_axis_km": 6917.920993135662,
      "eccentricity": 0.0001907,
      "inclination_deg": 53.2171,
      "raan_deg": 112.4853,
      "arg_perigee_deg": 86.8661,
      "mean_anomaly_deg": 273.2549,
      "mean_motion_rev_day": 15.08826716
    },
    {
      "epoch": "2026-03-30T05:23:38.043168Z",
      "apogee_km": 540.7392188955582,
      "perigee_km": 538.885761868095,
      "latitude_deg": -1.1485893818731027e-05,
      "longitude_deg": -156.63696652847875,
      "height_km": 540.7830242908652,
      "semi_major_axis_km": 6917.949490381826,
      "eccentricity": 0.00013396,
      "inclination_deg": 53.2171,
      "raan_deg": 111.8911,
      "arg_perigee_deg": 94.6317,
      "mean_anomaly_deg": 265.4828,
      "mean_motion_rev_day": 15.08817393
    },
    {
      "epoch": "2026-03-30T11:45:10.858464Z",
      "apogee_km": 540.7843658913662,
      "perigee_km": 538.837240302706,
      "latitude_deg": 5.439982286788132e-05,
      "longitude_deg": 106.52579277719728,
      "height_km": 540.7351873262543,
      "semi_major_axis_km": 6917.947803097036,
      "eccentricity": 0.00014073,
      "inclination_deg": 53.2175,
      "raan_deg": 110.7017,
      "arg_perigee_deg": 91.6922,
      "mean_anomaly_deg": 268.4232,
      "mean_motion_rev_day": 15.08817945
    },
    {
      "epoch": "2026-03-31T17:57:29.816064Z",
      "apogee_km": 540.6966748437926,
      "perigee_km": 538.8011741004857,
      "latitude_deg": -3.259628475955666e-05,
      "longitude_deg": 6.556353537454741,
      "height_km": 540.7357293607884,
      "semi_major_axis_km": 6917.885924472139,
      "eccentricity": 0.000137,
      "inclination_deg": 53.2165,
      "raan_deg": 105.0518,
      "arg_perigee_deg": 95.5218,
      "mean_anomaly_deg": 264.593,
      "mean_motion_rev_day": 15.08838189
    },
    {
      "epoch": "2026-04-01T17:48:16.824096Z",
      "apogee_km": 540.6290913069852,
      "perigee_km": 538.8027781322189,
      "latitude_deg": -4.099286902820361e-06,
      "longitude_deg": 3.420372710129783,
      "height_km": 540.732851614131,
      "semi_major_axis_km": 6917.852934719602,
      "eccentricity": 0.000132,
      "inclination_deg": 53.2148,
      "raan_deg": 100.591,
      "arg_perigee_deg": 97.6407,
      "mean_anomaly_deg": 262.4735,
      "mean_motion_rev_day": 15.08848982
    },
    {
      "epoch": "2026-04-02T09:42:07.708896Z",
      "apogee_km": 540.6604603567193,
      "perigee_km": 538.7211165145081,
      "latitude_deg": 3.117424242101305e-05,
      "longitude_deg": 121.33109372788144,
      "height_km": 540.7021377162275,
      "semi_major_axis_km": 6917.827788435613,
      "eccentricity": 0.00014017,
      "inclination_deg": 53.2153,
      "raan_deg": 97.6166,
      "arg_perigee_deg": 96.8653,
      "mean_anomaly_deg": 263.2499,
      "mean_motion_rev_day": 15.08857209
    },
    {
      "epoch": "2026-04-03T09:32:53.928960Z",
      "apogee_km": 540.6746370410183,
      "perigee_km": 538.6910213831907,
      "latitude_deg": 3.075402599413886e-05,
      "longitude_deg": 118.19828270630232,
      "height_km": 540.6767689643034,
      "semi_major_axis_km": 6917.819829212104,
      "eccentricity": 0.00014337,
      "inclination_deg": 53.2155,
      "raan_deg": 93.1557,
      "arg_perigee_deg": 95.7012,
      "mean_anomaly_deg": 264.4144,
      "mean_motion_rev_day": 15.08859813
    },
    {
      "epoch": "2026-04-04T09:23:41.511552Z",
      "apogee_km": 540.7113857602999,
      "perigee_km": 538.7718893054807,
      "latitude_deg": 2.4475723781584243e-05,
      "longitude_deg": 115.06047378165717,
      "height_km": 540.6139980300995,
      "semi_major_axis_km": 6917.87863753289,
      "eccentricity": 0.00014018,
      "inclination_deg": 53.216,
      "raan_deg": 88.6955,
      "arg_perigee_deg": 88.6329,
      "mean_anomaly_deg": 271.4824,
      "mean_motion_rev_day": 15.08840573
    },
    {
      "epoch": "2026-04-05T06:03:42.181920Z",
      "apogee_km": 540.667745146081,
      "perigee_km": 538.8068369617877,
      "latitude_deg": -4.54318668707388e-05,
      "longitude_deg": 160.3433700820822,
      "height_km": 540.5471977556005,
      "semi_major_axis_km": 6917.874291053934,
      "eccentricity": 0.0001345,
      "inclination_deg": 53.2161,
      "raan_deg": 84.83,
      "arg_perigee_deg": 84.7153,
      "mean_anomaly_deg": 275.3992,
      "mean_motion_rev_day": 15.08841995
    },
    {
      "epoch": "2026-04-06T04:19:05.977056Z",
      "apogee_km": 540.7159535925048,
      "perigee_km": 538.7660804946208,
      "latitude_deg": 1.6124976674628132e-08,
      "longitude_deg": -178.58249079355798,
      "height_km": 540.5525784029447,
      "semi_major_axis_km": 6917.878017043563,
      "eccentricity": 0.00014093,
      "inclination_deg": 53.2172,
      "raan_deg": 80.6673,
      "arg_perigee_deg": 85.0535,
      "mean_anomaly_deg": 275.0618,
      "mean_motion_rev_day": 15.08840776
    },
    {
      "epoch": "2026-04-07T07:20:39.660576Z",
      "apogee_km": 540.7751409482062,
      "perigee_km": 538.7177624096767,
      "latitude_deg": -5.5074729821577885e-06,
      "longitude_deg": 129.8620348339041,
      "height_km": 540.567737242855,
      "semi_major_axis_km": 6917.883451678941,
      "eccentricity": 0.0001487,
      "inclination_deg": 53.2177,
      "raan_deg": 75.6121,
      "arg_perigee_deg": 85.859,
      "mean_anomaly_deg": 274.2572,
      "mean_motion_rev_day": 15.08838998
    },
    {
      "epoch": "2026-04-08T05:36:03.669984Z",
      "apogee_km": 540.7927429815236,
      "perigee_km": 538.7039566789963,
      "latitude_deg": -1.1254691454872933e-05,
      "longitude_deg": 150.93483967740679,
      "height_km": 540.643014730841,
      "semi_major_axis_km": 6917.88534983026,
      "eccentricity": 0.00015097,
      "inclination_deg": 53.2182,
      "raan_deg": 71.449,
      "arg_perigee_deg": 89.9496,
      "mean_anomaly_deg": 270.1669,
      "mean_motion_rev_day": 15.08838377
    },
    {
      "epoch": "2026-04-09T14:59:09.971808Z",
      "apogee_km": 540.807388304941,
      "perigee_km": 538.7098823483102,
      "latitude_deg": -3.837823613665761e-05,
      "longitude_deg": 2.542681053065555,
      "height_km": 540.586352592116,
      "semi_major_axis_km": 6917.895635326626,
      "eccentricity": 0.0001516,
      "inclination_deg": 53.218,
      "raan_deg": 65.2042,
      "arg_perigee_deg": 86.2909,
      "mean_anomaly_deg": 273.8256,
      "mean_motion_rev_day": 15.08835012
    },
    {
      "epoch": "2026-04-10T06:53:00.574080Z",
      "apogee_km": 540.727184300792,
      "perigee_km": 538.7268147466903,
      "latitude_deg": 3.6941528176759806e-05,
      "longitude_deg": 120.45560988938868,
      "height_km": 540.5007114019218,
      "semi_major_axis_km": 6917.863999523741,
      "eccentricity": 0.00014458,
      "inclination_deg": 53.2172,
      "raan_deg": 62.2308,
      "arg_perigee_deg": 83.0014,
      "mean_anomaly_deg": 277.1143,
      "mean_motion_rev_day": 15.08845362
    },
    {
      "epoch": "2026-04-11T21:02:16.397088Z",
      "apogee_km": 540.7926352576324,
      "perigee_km": 538.699283874068,
      "latitude_deg": -1.0593779804689475e-05,
      "longitude_deg": -100.56460305560756,
      "height_km": 540.5761075900791,
      "semi_major_axis_km": 6917.88295956585,
      "eccentricity": 0.0001513,
      "inclination_deg": 53.2156,
      "raan_deg": 55.0935,
      "arg_perigee_deg": 86.4308,
      "mean_anomaly_deg": 273.6857,
      "mean_motion_rev_day": 15.08839159
    },
    {
      "epoch": "2026-04-13T06:25:22.174464Z",
      "apogee_km": 540.7707437957642,
      "perigee_km": 538.7292753392394,
      "latitude_deg": -1.386925375695912e-05,
      "longitude_deg": 111.04585087428698,
      "height_km": 540.6734527801815,
      "semi_major_axis_km": 6917.887009567501,
      "eccentricity": 0.00014755,
      "inclination_deg": 53.2187,
      "raan_deg": 48.8491,
      "arg_perigee_deg": 91.5583,
      "mean_anomaly_deg": 268.5578,
      "mean_motion_rev_day": 15.08837834
    },
    {
      "epoch": "2026-04-14T12:37:42.339072Z",
      "apogee_km": 540.7596329947746,
      "perigee_km": 538.798957158424,
      "latitude_deg": 2.7520671236470905e-06,
      "longitude_deg": 11.071345292198474,
      "height_km": 540.5954390586359,
      "semi_major_axis_km": 6917.9162950765985,
      "eccentricity": 0.00014171,
      "inclination_deg": 53.218,
      "raan_deg": 43.1991,
      "arg_perigee_deg": 85.3456,
      "mean_anomaly_deg": 274.7698,
      "mean_motion_rev_day": 15.08828253
    }
  ]
}